{"type":"Feature","properties":{"id":"","unit":"","number":"-1","street":"- 43 N ALTADENA Drive","city":"Pasadena","district":"","region":"","postcode":"91107","hash":"56b9454ca3314b2c"},"geometry":{"type":"Point","coordinates":[-118.0990213,34.1469258]}}
{"type":"Feature","properties":{"id":"","unit":"","number":"0","street":"0 Address","city":"Malibu","district":"","region":"","postcode":"90265","hash":"d6aea14158efd88c"},"geometry":{"type":"Point","coordinates":[-118.6454519,34.0520249]}}
{"type":"Feature","properties":{"id":"","unit":"203","number":"1","street":"62nd Place","city":"Long Beach","district":"","region":"","postcode":"90803","hash":"efcf44c3b3aee844"},"geometry":{"type":"Point","coordinates":[-118.1232843,33.7481627]}}
{"type":"Feature","properties":{"id":"","unit":"204","number":"1","street":"62nd Place","city":"Long Beach","district":"","region":"","postcode":"90803","hash":"38e48e2ff617812b"},"geometry":{"type":"Point","coordinates":[-118.1232843,33.7481627]}}
{"type":"Feature","properties":{"id":"","unit":"","number":"1","street":"62nd Place","city":"Long Beach","district":"","region":"","postcode":"90803","hash":"6f25717f5d134b52"},"geometry":{"type":"Point","coordinates":[-118.1232843,33.7481627]}}
{"type":"Feature","properties":{"id":"","unit":"","number":"1","street":"62nd Place","city":"Long Beach","district":"","region":"","postcode":"90803","hash":"6f25717f5d134b52"},"geometry":{"type":"Point","coordinates":[-118.1232843,33.7481627]}}
{"type":"Feature","properties":{"id":"","unit":"","number":"1","street":"62nd Place","city":"Long Beach","district":"","region":"","postcode":"90803","hash":"6f25717f5d134b52"},"geometry":{"type":"Point","coordinates":[-118.1232843,33.7481627]}}
{"type":"Feature","properties":{"id":"","unit":"","number":"1","street":"62nd Place","city":"Long Beach","district":"","region":"","postcode":"90803","hash":"6f25717f5d134b52"},"geometry":{"type":"Point","coordinates":[-118.1232843,33.7481627]}}
{"type":"Feature","properties":{"id":"","unit":"","number":"1","street":"62nd Place","city":"Long Beach","district":"","region":"","postcode":"90803","hash":"6f25717f5d134b52"},"geometry":{"type":"Point","coordinates":[-118.1232843,33.7481627]}}
{"type":"Feature","properties":{"id":"","unit":"","number":"1","street":"62nd Place","city":"Long Beach","district":"","region":"","postcode":"90803","hash":"4d3b177ff7cb41f9"},"geometry":{"type":"Point","coordinates":[-118.1232817,33.7481635]}}